{
    "links": {
        "self": "http://www.neowsapp.com/rest/v1/neo/3836908?api_key=iIulBulltgU6a56xZRHN4H3l9WmuAYTsLGpBGhQ2"
    },
    "id": "3836908",
    "neo_reference_id": "3836908",
    "name": "(2018 XY4)",
    "designation": "2018 XY4",
    "nasa_jpl_url": "http://ssd.jpl.nasa.gov/sbdb.cgi?sstr=3836908",
    "absolute_magnitude_h": 25.8,
    "estimated_diameter": {
        "kilometers": {
            "estimated_diameter_min": 0.0183888672,
            "estimated_diameter_max": 0.0411187571
        },
        "meters": {
            "estimated_diameter_min": 18.388867207,
            "estimated_diameter_max": 41.1187571041
        },
        "miles": {
            "estimated_diameter_min": 0.0114263088,
            "estimated_diameter_max": 0.0255500032
        },
        "feet": {
            "estimated_diameter_min": 60.3309310875,
            "estimated_diameter_max": 134.9040630575
        }
    },
    "is_potentially_hazardous_asteroid": false,
    "close_approach_data": [
        {
            "close_approach_date": "2018-12-03",
            "close_approach_date_full": "2018-Dec-03 16:36",
            "epoch_date_close_approach": 1543854960000,
            "relative_velocity": {
                "kilometers_per_second": "10.0543355174",
                "kilometers_per_hour": "36195.6078625399",
                "miles_per_hour": "22490.5431188099"
            },
            "miss_distance": {
                "astronomical": "0.0550033436",
                "lunar": "21.3963006604",
                "kilometers": "8228383.045438132",
                "miles": "5112880.1370329416"
            },
            "orbiting_body": "Earth"
        }
    ],
    "orbital_data": {
        "orbit_id": "2",
        "orbit_determination_date": "2018-12-21 06:55:36",
        "first_observation_date": "2018-12-13",
        "last_observation_date": "2018-12-17",
        "data_arc_in_days": 4,
        "observations_used": 16,
        "orbit_uncertainty": "9",
        "minimum_orbit_intersection": ".0348434",
        "jupiter_tisserand_invariant": "4.142",
        "epoch_osculation": "2458466.5",
        "eccentricity": ".443282109408284",
        "semi_major_axis": "1.662590967553532",
        "inclination": "2.712294380879286",
        "ascending_node_longitude": "112.6503609120933",
        "orbital_period": "783.0266656086025",
        "perihelion_distance": ".9255941363732427",
        "perihelion_argument": "273.9808639759614",
        "aphelion_distance": "2.399587798733822",
        "perihelion_time": "2458422.550113916023",
        "mean_anomaly": "20.2061560418689",
        "mean_motion": ".4597544576852849",
        "equinox": "J2000",
        "orbit_class": {
            "orbit_class_type": "APO",
            "orbit_class_description": "Near-Earth asteroid orbits which cross the Earth’s orbit similar to that of 1862 Apollo",
            "orbit_class_range": "a (semi-major axis) > 1.0 AU; q (perihelion) < 1.017 AU"
        }
    },
    "is_sentry_object": false
}